NORAD_CAT_ID,OBJECT_NAME,OBJECT_TYPE,EPOCH,MEAN_MOTION,ECCENTRICITY,INCLINATION,RA_OF_ASC_NODE,ARG_OF_PERICENTER,MEAN_ANOMALY,BSTAR,MEAN_MOTION_DOT,MEAN_MOTION_DDOT,TLE_LINE0,TLE_LINE1,TLE_LINE2,SEMIMAJOR_AXIS,PERIOD,APOGEE,PERIGEE,DECAYED
52124.0,STARLINK-3684,PAYLOAD,2022-07-05 22:00:00,15.08821414,0.0001422,53.2158,347.0471,55.9216,56.8634,0.0028449,0.00045256,0.0,0 STARLINK-3684,1 52124U 22029AN  22186.91667824  .00045256  00000-0  28449-2 0  9992,2 52124  53.2158 347.0471 0001422  55.9216  56.8634 15.08821414 18075,6917.937,95.439,540.786,538.818,0.0
52124.0,STARLINK-3684,PAYLOAD,2022-07-06 14:00:01,15.08847627,0.0001474,53.2159,344.0533,65.428,70.5479,-0.0025164,-0.00040122,0.0,0 STARLINK-3684,1 52124U 22029AN  22187.58334491 -.00040122  00000-0 -25164-2 0  9997,2 52124  53.2159 344.0533 0001474  65.4280  70.5479 15.08847627  1308,6917.857,95.437,540.742,538.702,0.0
52124.0,STARLINK-3684,PAYLOAD,2022-07-06 16:00:00,15.08830835,0.0001533,53.2157,343.6797,62.8224,166.0564,-0.0010257,-0.00016571,0.0,0 STARLINK-3684,1 52124U 22029AN  22187.66667824 -.00016571  00000-0 -10257-2 0  9993,2 52124  53.2157 343.6797 0001533  62.8224 166.0564 15.08830835 18181,6917.908,95.438,540.8340000000002,538.7130000000002,0.0
52124.0,STARLINK-3684,PAYLOAD,2022-07-06 22:00:00,15.08810018,0.0001557,53.2156,342.5579,57.5797,89.986,0.0025551,0.00040577,0.0,0 STARLINK-3684,1 52124U 22029AN  22187.91667824  .00040577  00000-0  25551-2 0  9995,2 52124  53.2156 342.5579 0001557  57.5797  89.9860 15.08810018  1307,6917.972,95.439,540.914,538.76,0.0
52124.0,STARLINK-3684,PAYLOAD,2022-07-07 14:00:01,15.08854538,0.000155,53.2159,339.5641,64.0584,106.6742,-0.0015149,-0.00024326,0.0,0 STARLINK-3684,1 52124U 22029AN  22188.58334491 -.00024326  00000-0 -15149-2 0  9998,2 52124  53.2159 339.5641 0001550  64.0584 106.6742 15.08854538 18327,6917.8359999999975,95.437,540.773,538.629,0.0
52124.0,STARLINK-3684,PAYLOAD,2022-07-07 22:00:00,15.0883223,0.0001623,53.2157,338.0687,56.8832,125.4531,0.0021491999999999,0.00034075,0.0,0 STARLINK-3684,1 52124U 22029AN  22188.91667824  .00034075  00000-0  21492-2 0  9992,2 52124  53.2157 338.0687 0001623  56.8832 125.4531 15.08832230  1305,6917.904,95.438,540.8919999999998,538.646,0.0
52124.0,STARLINK-3684,PAYLOAD,2022-07-08 13:05:33,15.08832788,0.000185,53.2174,335.2437,71.8782,288.2411,0.00050541,7.763e-05,0.0,0 STARLINK-3684,1 52124U 22029AN  22189.54552993  .00007763  00000-0  50541-3 0  9994,2 52124  53.2174 335.2437 0001850  71.8782 288.2411 15.08832788 18478,6917.901999999999,95.438,541.047,538.488,0.0
52124.0,STARLINK-3684,PAYLOAD,2022-07-08 22:00:01,15.08873934,0.0001689,53.2158,333.5788,56.8141,160.4566,-0.00014109,-2.535e-05,0.0,0 STARLINK-3684,1 52124U 22029AN  22189.91668981 -.00002535  00000-0 -14109-3 0  9994,2 52124  53.2158 333.5788 0001689  56.8141 160.4566 15.08873934  1306,6917.776999999999,95.435,540.81,538.4730000000002,0.0
52124.0,STARLINK-3684,PAYLOAD,2022-07-09 14:00:01,15.08816402,0.0001605,53.2163,330.5852,60.8788,179.5431,-0.0031291,-0.00049712,0.0,0 STARLINK-3684,1 52124U 22029AN  22190.58334491 -.00049712  00000-0 -31291-2 0  9993,2 52124  53.2163 330.5852 0001605  60.8788 179.5431 15.08816402  1300,6917.953,95.439,540.928,538.707,0.0
52124.0,STARLINK-3684,PAYLOAD,2022-07-09 16:00:00,15.08795953,0.0001689,53.2163,330.2115,59.3538,273.9612,-0.001123,-0.00018095,0.0,0 STARLINK-3684,1 52124U 22029AN  22190.66667824 -.00018095  00000-0 -11230-2 0  9992,2 52124  53.2163 330.2115 0001689  59.3538 273.9612 15.08795953 18638,6918.015,95.44,541.048,538.712,0.0
52124.0,STARLINK-3684,PAYLOAD,2022-07-09 20:00:01,15.08764688,0.0001689,53.2162,329.4637,56.7211,102.3689,0.0034052,0.00054211,0.0,0 STARLINK-3684,1 52124U 22029AN  22190.83334491  .00054211  00000-0  34052-2 0  9997,2 52124  53.2162 329.4637 0001689  56.7211 102.3689 15.08764688  1301,6918.111,95.442,541.144,538.807,0.0
52124.0,STARLINK-3684,PAYLOAD,2022-07-10 06:00:00,15.08775192,0.000153,53.2163,327.5912,64.6895,198.8239,0.0031692,0.00050421,0.0,0 STARLINK-3684,1 52124U 22029AN  22191.25001157  .00050421  00000-0  31692-2 0  9990,2 52124  53.2163 327.5912 0001530  64.6895 198.8239 15.08775192 18725,6918.078,95.442,541.002,538.885,0.0
52124.0,STARLINK-3684,PAYLOAD,2022-07-10 14:00:01,15.0881047,0.0001594,53.2164,326.0962,60.9988,214.0534,-6.953e-05,-1.393e-05,0.0,0 STARLINK-3684,1 52124U 22029AN  22191.58334491 -.00001393  00000-0 -69530-4 0  9996,2 52124  53.2164 326.0962 0001594  60.9988 214.0534 15.08810470  1301,6917.971,95.439,540.938,538.7330000000002,0.0
52124.0,STARLINK-3684,PAYLOAD,2022-07-10 22:00:00,15.08831296,0.0001544,53.216,324.6,55.5018,231.105,0.0015037,0.00023719,0.0,0 STARLINK-3684,1 52124U 22029AN  22191.91667824  .00023719  00000-0  15037-2 0  9997,2 52124  53.2160 324.6000 0001544  55.5018 231.1050 15.08831296 18820,6917.906999999997,95.438,540.84,538.7040000000002,0.0
52124.0,STARLINK-3684,PAYLOAD,2022-07-11 14:00:01,15.0886878,0.0001508,53.2164,321.607,59.6767,250.1329,-0.0017729,-0.00028415,0.0,0 STARLINK-3684,1 52124U 22029AN  22192.58334491 -.00028415  00000-0 -17729-2 0  9992,2 52124  53.2164 321.6070 0001508  59.6767 250.1329 15.08868780  1307,6917.792,95.436,540.701,538.614,0.0
52124.0,STARLINK-3684,PAYLOAD,2022-07-11 22:00:00,15.08867615,0.0001573,53.216,320.1106,56.8773,264.5468,-0.0034709,-0.00055146,0.0,0 STARLINK-3684,1 52124U 22029AN  22192.91667824 -.00055146  00000-0 -34709-2 0  9996,2 52124  53.2160 320.1106 0001573  56.8773 264.5468 15.08867615  1304,6917.795999999999,95.436,540.749,538.573,0.0
52124.0,STARLINK-3684,PAYLOAD,2022-07-12 06:00:00,15.08814252,0.0001515,53.216,318.6126,67.1899,265.8608,0.0035585,0.00056762,0.0,0 STARLINK-3684,1 52124U 22029AN  22193.25001157  .00056762  00000-0  35585-2 0  9991,2 52124  53.2160 318.6126 0001515  67.1899 265.8608 15.08814252 19025,6917.959,95.439,540.872,538.776,0.0
52124.0,STARLINK-3684,PAYLOAD,2022-07-12 14:00:01,15.08861361,0.0001602,53.2161,317.1178,61.4138,283.2271,-0.0013826,-0.00022238,0.0,0 STARLINK-3684,1 52124U 22029AN  22193.58334491 -.00022238  00000-0 -13826-2 0  9994,2 52124  53.2161 317.1178 0001602  61.4138 283.2271 15.08861361  1302,6917.815,95.436,540.788,538.572,0.0
52124.0,STARLINK-3684,PAYLOAD,2022-07-12 22:00:00,15.08866393,0.0001548,53.2156,315.6213,56.5412,299.719,-0.0019043,-0.00030489,0.0,0 STARLINK-3684,1 52124U 22029AN  22193.91667824 -.00030489  00000-0 -19043-2 0  9994,2 52124  53.2156 315.6213 0001548  56.5412 299.7190 15.08866393 19129,6917.8,95.436,540.736,538.594,0.0
52124.0,STARLINK-3684,PAYLOAD,2022-07-13 06:00:00,15.08830834,0.0001402,53.2158,314.1243,64.541,303.2905,0.0013765,0.00021681,0.0,0 STARLINK-3684,1 52124U 22029AN  22194.25001157  .00021681  00000-0  13765-2 0  9990,2 52124  53.2158 314.1243 0001402  64.5410 303.2905 15.08830834 19186,6917.908,95.438,540.743,538.804,0.0
52124.0,STARLINK-3684,PAYLOAD,2022-07-13 14:00:01,15.08833005,0.0001612,53.2158,312.6289,60.4171,319.004,-0.0010729,-0.00017319,0.0,0 STARLINK-3684,1 52124U 22029AN  22194.58334491 -.00017319  00000-0 -10729-2 0  9998,2 52124  53.2158 312.6289 0001612  60.4171 319.0040 15.08833005  1304,6917.901999999999,95.438,540.882,538.6519999999998,0.0
52124.0,STARLINK-3684,PAYLOAD,2022-07-13 22:00:00,15.08843318,0.0001592,53.2155,311.1323,56.9113,334.0837,-0.00069039,-0.0001126,0.0,0 STARLINK-3684,1 52124U 22029AN  22194.91667824 -.00011260  00000-0 -69039-3 0  9992,2 52124  53.2155 311.1323 0001592  56.9113 334.0837 15.08843318 19282,6917.87,95.437,540.837,538.634,0.0
52124.0,STARLINK-3684,PAYLOAD,2022-07-14 14:00:01,15.08835893,0.0001576999999999,53.2156,308.14,58.1164,356.0551,-0.0021659,-0.00034589,0.0,0 STARLINK-3684,1 52124U 22029AN  22195.58334491 -.00034589  00000-0 -21659-2 0  9991,2 52124  53.2156 308.1400 0001577  58.1164 356.0551 15.08835893  1308,6917.893,95.438,540.849,538.6669999999998,0.0
52124.0,STARLINK-3684,PAYLOAD,2022-07-14 22:00:00,15.08839756,0.0001523,53.2155,306.6433,53.8764,11.8695,-0.0010294,-0.00016633,0.0,0 STARLINK-3684,1 52124U 22029AN  22195.91667824 -.00016633  00000-0 -10294-2 0  9990,2 52124  53.2155 306.6433 0001523  53.8764  11.8695 15.08839756  1302,6917.880999999999,95.438,540.8,538.693,0.0
52124.0,STARLINK-3684,PAYLOAD,2022-07-15 06:00:00,15.08819748,0.000145,53.2156,305.1456,61.9007,15.435,0.0029493,0.00046937,0.0,0 STARLINK-3684,1 52124U 22029AN  22196.25001157  .00046937  00000-0  29493-2 0  9998,2 52124  53.2156 305.1456 0001450  61.9007  15.4350 15.08819748 19486,6917.941999999999,95.439,540.81,538.804,0.0
52124.0,STARLINK-3684,PAYLOAD,2022-07-15 14:00:01,15.08851786,0.0001622,53.2156,303.6511,55.3724,33.5575,-9.6543e-05,-1.825e-05,0.0,0 STARLINK-3684,1 52124U 22029AN  22196.58334491 -.00001825  00000-0 -96543-4 0  9995,2 52124  53.2156 303.6511 0001622  55.3724  33.5575 15.08851786  1305,6917.844,95.437,540.831,538.587,0.0
52124.0,STARLINK-3684,PAYLOAD,2022-07-15 22:00:00,15.088944199999998,0.000164,53.2156,302.1542,53.198,47.3449,-0.003993,-0.00063372,0.0,0 STARLINK-3684,1 52124U 22029AN  22196.91667824 -.00063372  00000-0 -39930-2 0  9991,2 52124  53.2156 302.1542 0001640  53.1980  47.3449 15.08894420  1308,6917.714,95.434,540.714,538.445,0.0
52124.0,STARLINK-3684,PAYLOAD,2022-07-16 06:00:00,15.08831849,0.0001652,53.2173,300.6657,56.3201,55.8182,0.00050681,7.785e-05,0.0,0 STARLINK-3684,1 52124U 22029AN  22197.25001157  .00007785  00000-0  50681-3 0  9991,2 52124  53.2173 300.6657 0001652  56.3201  55.8182 15.08831849 19630,6917.905,95.438,540.913,538.627,0.0
52124.0,STARLINK-3684,PAYLOAD,2022-07-16 14:00:01,15.088644400000002,0.0001754999999999,53.2157,299.1620000000001,55.1547,68.5956,-0.00076458,-0.00012444,0.0,0 STARLINK-3684,1 52124U 22029AN  22197.58334491 -.00012444  00000-0 -76458-3 0  9997,2 52124  53.2157 299.1620 0001755  55.1547  68.5956 15.08864440 19686,6917.806,95.436,540.885,538.457,0.0
